UNKNOWN                 
1 81301U          26077.69493781  .00000173  00000+0  24458-3 0  9998
2 81301  66.7579  66.6752 0086883 170.1623   9.1061 13.76771682619562
UNKNOWN                 
1 81311U          26077.66438964  .00000648  00000+0  14075-3 0  9999
2 81311  98.7156 144.4010 0131167 190.9392 321.6887 14.56698620653554
UNKNOWN                 
1 81317U          26073.48032571  .00000098  00000+0  26884-3 0  9995
2 81317  67.1402 334.6197 0216198 330.3006 209.9801 13.38054256600908
UNKNOWN                 
1 81329U          26074.63473607  .00001471  00000+0  53546-3 0  9996
2 81329  65.8204 277.6003 0835732 347.9140  10.2881 13.22754358590364
UNKNOWN                 
1 81343U          26076.21309018  .00004726  00000+0  32772-3 0  9996
2 81343  85.8838 148.8335 0006414 281.8028  78.2487 15.05357512468522
UNKNOWN                 
1 81359U          26076.98476670  .00000661  00000+0  68165-3 0  9995
2 81359  66.7981 183.9940 0120630 262.1022  96.6345 13.79001152618610
UNKNOWN                 
1 81366U          26067.87649129  .00000773  00000+0  29991-3 0  9990
2 81366  65.8806 228.1422 0712640  39.6357 325.4608 13.45388160 77543
UNKNOWN                 
1 81371U          26077.56457088  .00002596  00000+0  41467-3 0  9991
2 81371  98.8096 186.7309 0069946  66.6839 294.1706 14.71243223655923
UNKNOWN                 
1 81390U          26076.94870922 -.00000304  00000+0 -19046-2 0  9993
2 81390 103.1053 337.0027 0177351 338.5329  20.8358 12.35617502511853
UNKNOWN                 
1 81392U          26074.74704753  .00002783  00000+0  26071-2 0  9996
2 81392 100.4046  77.4398 0040336 153.7531  21.5714 13.82345815615023
UNKNOWN                 
1 81405U          26073.89719008  .00001447  00000+0  11126-2 0  9996
2 81405  99.4590 128.5260 0157520 337.4444  21.9841 13.89179281574593
UNKNOWN                 
1 81427U          26076.93352254  .00000392  00000+0  25121-3 0  9993
2 81427  98.7415 320.9859 0084638 129.4187 231.4514 14.07110556565157
