CCSDS_OMM_VERS = 2.0
CREATION_DATE  = 
ORIGINATOR     = 

OBJECT_NAME    = UNKNOWN
OBJECT_ID      = 
CENTER_NAME    = EARTH
REF_FRAME      = TEME
TIME_SYSTEM    = UTC
MEAN_ELEMENT_THEORY = SGP/SGP4

EPOCH          = 2026-03-18T16:40:42.626784
MEAN_MOTION    = 13.76771682
ECCENTRICITY   = .0086883
INCLINATION    = 66.7579
RA_OF_ASC_NODE = 66.6752
ARG_OF_PERICENTER = 170.1623
MEAN_ANOMALY   = 9.1061

EPHEMERIS_TYPE = 0
CLASSIFICATION_TYPE = U
NORAD_CAT_ID   = 81301
ELEMENT_SET_NO = 999
REV_AT_EPOCH   = 61956
BSTAR          = .24458E-3
MEAN_MOTION_DOT = .173E-5
MEAN_MOTION_DDOT = 0

CCSDS_OMM_VERS = 2.0
CREATION_DATE  = 
ORIGINATOR     = 

OBJECT_NAME    = UNKNOWN
OBJECT_ID      = 
CENTER_NAME    = EARTH
REF_FRAME      = TEME
TIME_SYSTEM    = UTC
MEAN_ELEMENT_THEORY = SGP/SGP4

EPOCH          = 2026-03-18T15:56:43.264896
MEAN_MOTION    = 14.56698620
ECCENTRICITY   = .0131167
INCLINATION    = 98.7156
RA_OF_ASC_NODE = 144.4010
ARG_OF_PERICENTER = 190.9392
MEAN_ANOMALY   = 321.6887

EPHEMERIS_TYPE = 0
CLASSIFICATION_TYPE = U
NORAD_CAT_ID   = 81311
ELEMENT_SET_NO = 999
REV_AT_EPOCH   = 65355
BSTAR          = .14075E-3
MEAN_MOTION_DOT = .648E-5
MEAN_MOTION_DDOT = 0

CCSDS_OMM_VERS = 2.0
CREATION_DATE  = 
ORIGINATOR     = 

OBJECT_NAME    = UNKNOWN
OBJECT_ID      = 
CENTER_NAME    = EARTH
REF_FRAME      = TEME
TIME_SYSTEM    = UTC
MEAN_ELEMENT_THEORY = SGP/SGP4

EPOCH          = 2026-03-14T11:31:40.141344
MEAN_MOTION    = 13.38054256
ECCENTRICITY   = .0216198
INCLINATION    = 67.1402
RA_OF_ASC_NODE = 334.6197
ARG_OF_PERICENTER = 330.3006
MEAN_ANOMALY   = 209.9801

EPHEMERIS_TYPE = 0
CLASSIFICATION_TYPE = U
NORAD_CAT_ID   = 81317
ELEMENT_SET_NO = 999
REV_AT_EPOCH   = 60090
BSTAR          = .26884E-3
MEAN_MOTION_DOT = .98E-6
MEAN_MOTION_DDOT = 0

CCSDS_OMM_VERS = 2.0
CREATION_DATE  = 
ORIGINATOR     = 

OBJECT_NAME    = UNKNOWN
OBJECT_ID      = 
CENTER_NAME    = EARTH
REF_FRAME      = TEME
TIME_SYSTEM    = UTC
MEAN_ELEMENT_THEORY = SGP/SGP4

EPOCH          = 2026-03-15T15:14:01.196448
MEAN_MOTION    = 13.22754358
ECCENTRICITY   = .0835732
INCLINATION    = 65.8204
RA_OF_ASC_NODE = 277.6003
ARG_OF_PERICENTER = 347.9140
MEAN_ANOMALY   = 10.2881

EPHEMERIS_TYPE = 0
CLASSIFICATION_TYPE = U
NORAD_CAT_ID   = 81329
ELEMENT_SET_NO = 999
REV_AT_EPOCH   = 59036
BSTAR          = .53546E-3
MEAN_MOTION_DOT = .1471E-4
MEAN_MOTION_DDOT = 0

CCSDS_OMM_VERS = 2.0
CREATION_DATE  = 
ORIGINATOR     = 

OBJECT_NAME    = UNKNOWN
OBJECT_ID      = 
CENTER_NAME    = EARTH
REF_FRAME      = TEME
TIME_SYSTEM    = UTC
MEAN_ELEMENT_THEORY = SGP/SGP4

EPOCH          = 2026-03-17T05:06:50.991552
MEAN_MOTION    = 15.05357512
ECCENTRICITY   = .0006414
INCLINATION    = 85.8838
RA_OF_ASC_NODE = 148.8335
ARG_OF_PERICENTER = 281.8028
MEAN_ANOMALY   = 78.2487

EPHEMERIS_TYPE = 0
CLASSIFICATION_TYPE = U
NORAD_CAT_ID   = 81343
ELEMENT_SET_NO = 999
REV_AT_EPOCH   = 46852
BSTAR          = .32772E-3
MEAN_MOTION_DOT = .4726E-4
MEAN_MOTION_DDOT = 0

CCSDS_OMM_VERS = 2.0
CREATION_DATE  = 
ORIGINATOR     = 

OBJECT_NAME    = UNKNOWN
OBJECT_ID      = 
CENTER_NAME    = EARTH
REF_FRAME      = TEME
TIME_SYSTEM    = UTC
MEAN_ELEMENT_THEORY = SGP/SGP4

EPOCH          = 2026-03-17T23:38:03.842880
MEAN_MOTION    = 13.79001152
ECCENTRICITY   = .012063
INCLINATION    = 66.7981
RA_OF_ASC_NODE = 183.9940
ARG_OF_PERICENTER = 262.1022
MEAN_ANOMALY   = 96.6345

EPHEMERIS_TYPE = 0
CLASSIFICATION_TYPE = U
NORAD_CAT_ID   = 81359
ELEMENT_SET_NO = 999
REV_AT_EPOCH   = 61861
BSTAR          = .68165E-3
MEAN_MOTION_DOT = .661E-5
MEAN_MOTION_DDOT = 0

CCSDS_OMM_VERS = 2.0
CREATION_DATE  = 
ORIGINATOR     = 

OBJECT_NAME    = UNKNOWN
OBJECT_ID      = 
CENTER_NAME    = EARTH
REF_FRAME      = TEME
TIME_SYSTEM    = UTC
MEAN_ELEMENT_THEORY = SGP/SGP4

EPOCH          = 2026-03-08T21:02:08.847456
MEAN_MOTION    = 13.45388160
ECCENTRICITY   = .071264
INCLINATION    = 65.8806
RA_OF_ASC_NODE = 228.1422
ARG_OF_PERICENTER = 39.6357
MEAN_ANOMALY   = 325.4608

EPHEMERIS_TYPE = 0
CLASSIFICATION_TYPE = U
NORAD_CAT_ID   = 81366
ELEMENT_SET_NO = 999
REV_AT_EPOCH   = 7754
BSTAR          = .29991E-3
MEAN_MOTION_DOT = .773E-5
MEAN_MOTION_DDOT = 0

CCSDS_OMM_VERS = 2.0
CREATION_DATE  = 
ORIGINATOR     = 

OBJECT_NAME    = UNKNOWN
OBJECT_ID      = 
CENTER_NAME    = EARTH
REF_FRAME      = TEME
TIME_SYSTEM    = UTC
MEAN_ELEMENT_THEORY = SGP/SGP4

EPOCH          = 2026-03-18T13:32:58.924032
MEAN_MOTION    = 14.71243223
ECCENTRICITY   = .0069946
INCLINATION    = 98.8096
RA_OF_ASC_NODE = 186.7309
ARG_OF_PERICENTER = 66.6839
MEAN_ANOMALY   = 294.1706

EPHEMERIS_TYPE = 0
CLASSIFICATION_TYPE = U
NORAD_CAT_ID   = 81371
ELEMENT_SET_NO = 999
REV_AT_EPOCH   = 65592
BSTAR          = .41467E-3
MEAN_MOTION_DOT = .2596E-4
MEAN_MOTION_DDOT = 0

CCSDS_OMM_VERS = 2.0
CREATION_DATE  = 
ORIGINATOR     = 

OBJECT_NAME    = UNKNOWN
OBJECT_ID      = 
CENTER_NAME    = EARTH
REF_FRAME      = TEME
TIME_SYSTEM    = UTC
MEAN_ELEMENT_THEORY = SGP/SGP4

EPOCH          = 2026-03-17T22:46:08.476608
MEAN_MOTION    = 12.35617502
ECCENTRICITY   = .0177351
INCLINATION    = 103.1053
RA_OF_ASC_NODE = 337.0027
ARG_OF_PERICENTER = 338.5329
MEAN_ANOMALY   = 20.8358

EPHEMERIS_TYPE = 0
CLASSIFICATION_TYPE = U
NORAD_CAT_ID   = 81390
ELEMENT_SET_NO = 999
REV_AT_EPOCH   = 51185
BSTAR          = -.19046E-2
MEAN_MOTION_DOT = -.304E-5
MEAN_MOTION_DDOT = 0

CCSDS_OMM_VERS = 2.0
CREATION_DATE  = 
ORIGINATOR     = 

OBJECT_NAME    = UNKNOWN
OBJECT_ID      = 
CENTER_NAME    = EARTH
REF_FRAME      = TEME
TIME_SYSTEM    = UTC
MEAN_ELEMENT_THEORY = SGP/SGP4

EPOCH          = 2026-03-15T17:55:44.906592
MEAN_MOTION    = 13.82345815
ECCENTRICITY   = .0040336
INCLINATION    = 100.4046
RA_OF_ASC_NODE = 77.4398
ARG_OF_PERICENTER = 153.7531
MEAN_ANOMALY   = 21.5714

EPHEMERIS_TYPE = 0
CLASSIFICATION_TYPE = U
NORAD_CAT_ID   = 81392
ELEMENT_SET_NO = 999
REV_AT_EPOCH   = 61502
BSTAR          = .26071E-2
MEAN_MOTION_DOT = .2783E-4
MEAN_MOTION_DDOT = 0

CCSDS_OMM_VERS = 2.0
CREATION_DATE  = 
ORIGINATOR     = 

OBJECT_NAME    = UNKNOWN
OBJECT_ID      = 
CENTER_NAME    = EARTH
REF_FRAME      = TEME
TIME_SYSTEM    = UTC
MEAN_ELEMENT_THEORY = SGP/SGP4

EPOCH          = 2026-03-14T21:31:57.222912
MEAN_MOTION    = 13.89179281
ECCENTRICITY   = .015752
INCLINATION    = 99.4590
RA_OF_ASC_NODE = 128.5260
ARG_OF_PERICENTER = 337.4444
MEAN_ANOMALY   = 21.9841

EPHEMERIS_TYPE = 0
CLASSIFICATION_TYPE = U
NORAD_CAT_ID   = 81405
ELEMENT_SET_NO = 999
REV_AT_EPOCH   = 57459
BSTAR          = .11126E-2
MEAN_MOTION_DOT = .1447E-4
MEAN_MOTION_DDOT = 0

CCSDS_OMM_VERS = 2.0
CREATION_DATE  = 
ORIGINATOR     = 

OBJECT_NAME    = UNKNOWN
OBJECT_ID      = 
CENTER_NAME    = EARTH
REF_FRAME      = TEME
TIME_SYSTEM    = UTC
MEAN_ELEMENT_THEORY = SGP/SGP4

EPOCH          = 2026-03-17T22:24:16.347456
MEAN_MOTION    = 14.07110556
ECCENTRICITY   = .0084638
INCLINATION    = 98.7415
RA_OF_ASC_NODE = 320.9859
ARG_OF_PERICENTER = 129.4187
MEAN_ANOMALY   = 231.4514

EPHEMERIS_TYPE = 0
CLASSIFICATION_TYPE = U
NORAD_CAT_ID   = 81427
ELEMENT_SET_NO = 999
REV_AT_EPOCH   = 56515
BSTAR          = .25121E-3
MEAN_MOTION_DOT = .392E-5
MEAN_MOTION_DDOT = 0

